{
"type": "FeatureCollection",
"name": "boundaries",
"crs": { "type": "name", "properties": { "name": "urn:ogc:def:crs:OGC:1.3:CRS84" } },
"features": [
{ "type": "Feature", "properties": { "territory": "MNP", "admin": "Northern Mariana Islands", "country": "U.S.", "name": "N. Mariana Is.", "pct_coast_retreat": 1.3618, "area_lost_km2": 0.1075, "area_gained_km2": 1.6215, "area_net_km2": 1.5141, "coast_km_assessed": 189.45, "coast_km_retreat": 2.58, "rate_median_m_yr": 0.224, "pop_total": 47630, "pop_coastal_1km": 20538, "pop_retreat_1km": 3301, "pct_coastal": 43.1, "pct_retreat": 6.9 }, "geometry": { "type": "Polygon", "coordinates": [ [ [ 140.00405097, 13.91924549 ], [ 140.00405097, 21.58878823 ], [ 157.675257429999988, 21.58878823 ], [ 157.675257429999988, 11.57341303 ], [ 145.980905009999987, 11.57341303 ], [ 145.980905009999987, 13.93212368 ], [ 140.00405097, 13.91924549 ] ] ] } },
{ "type": "Feature", "properties": { "territory": "GUM", "admin": "Guam", "country": "U.S.", "name": "Guam", "pct_coast_retreat": 2.0179, "area_lost_km2": 0.7201, "area_gained_km2": 2.1267, "area_net_km2": 1.4066, "coast_km_assessed": 13.38, "coast_km_retreat": 0.27, "rate_median_m_yr": 0.2205, "pop_total": 161358, "pop_coastal_1km": 21933, "pop_retreat_1km": 388, "pct_coastal": 13.6, "pct_retreat": 0.2 }, "geometry": { "type": "Polygon", "coordinates": [ [ [ 140.00405097, 11.57341303 ], [ 140.00405097, 13.93212368 ], [ 145.980905009999987, 13.93212368 ], [ 145.980905009999987, 11.57341303 ], [ 140.00405097, 11.57341303 ] ] ] } },
{ "type": "Feature", "properties": { "territory": "MHL", "admin": "Marshall Islands", "country": null, "name": "Marshall Islands", "pct_coast_retreat": 9.2488, "area_lost_km2": 3.5522, "area_gained_km2": 13.3422, "area_net_km2": 9.79, "coast_km_assessed": 818.7, "coast_km_retreat": 75.72, "rate_median_m_yr": 0.118, "pop_total": 43361, "pop_coastal_1km": 40893, "pop_retreat_1km": 12317, "pct_coastal": 94.3, "pct_retreat": 28.4 }, "geometry": { "type": "Polygon", "coordinates": [ [ [ 157.675257429999988, 21.58878823 ], [ 160.00021222, 21.58936574 ], [ 177.3305225, 12.70293198 ], [ 177.331096910000014, 3.9436977 ], [ 168.683918229999989, 3.9436977 ], [ 168.69340993, 3.37836892 ], [ 157.675257429999988, 11.57341303 ], [ 157.675257429999988, 21.58878823 ] ] ] } },
{ "type": "Feature", "properties": { "territory": "FSM", "admin": "Federated States of Micronesia", "country": null, "name": "Micronesia", "pct_coast_retreat": 4.8601, "area_lost_km2": 1.5747, "area_gained_km2": 8.6961, "area_net_km2": 7.1214, "coast_km_assessed": 612.33, "coast_km_retreat": 29.76, "rate_median_m_yr": 0.215, "pop_total": 74353, "pop_coastal_1km": 37730, "pop_retreat_1km": 4811, "pct_coastal": 50.7, "pct_retreat": 6.5 }, "geometry": { "type": "Polygon", "coordinates": [ [ [ 168.69340993, 3.37836892 ], [ 168.69340993, -0.1768226 ], [ 146.091095880000012, -0.1768226 ], [ 140.594751519999988, 7.53650753 ], [ 136.332280379999986, 7.53650753 ], [ 136.332280379999986, 9.71320103 ], [ 140.00405097, 11.57341303 ], [ 157.675257429999988, 11.57341303 ], [ 168.69340993, 3.37836892 ] ] ] } },
{ "type": "Feature", "properties": { "territory": "PLW", "admin": "Palau", "country": null, "name": "Palau", "pct_coast_retreat": 2.3505, "area_lost_km2": 0.5477, "area_gained_km2": 2.7067, "area_net_km2": 2.159, "coast_km_assessed": 478.62, "coast_km_retreat": 11.25, "rate_median_m_yr": 0.135, "pop_total": 17431, "pop_coastal_1km": 12095, "pop_retreat_1km": 1629, "pct_coastal": 69.4, "pct_retreat": 9.3 }, "geometry": { "type": "Polygon", "coordinates": [ [ [ 136.332280379999986, 9.71320103 ], [ 136.332280379999986, 7.53650753 ], [ 140.594751519999988, 7.53650753 ], [ 146.091095880000012, -0.1768226 ], [ 141.03099752, -0.1768226 ], [ 140.03390005, -0.1768226 ], [ 130.38725485, 2.41975193 ], [ 130.38725485, 6.47183601 ], [ 136.332280379999986, 9.71320103 ] ] ] } },
{ "type": "Feature", "properties": { "territory": "NRU", "admin": "Nauru", "country": null, "name": "Nauru", "pct_coast_retreat": 3.6398, "area_lost_km2": 0.0498, "area_gained_km2": 0.0426, "area_net_km2": -0.0072, "coast_km_assessed": 15.66, "coast_km_retreat": 0.57, "rate_median_m_yr": -0.1165, "pop_total": 11626, "pop_coastal_1km": 8866, "pop_retreat_1km": 3046, "pct_coastal": 76.3, "pct_retreat": 26.2 }, "geometry": { "type": "Polygon", "coordinates": [ [ [ 164.501743119999986, -4.66114394 ], [ 164.501743119999986, -0.1768226 ], [ 168.69340993, -0.1768226 ], [ 168.69340993, -4.66114394 ], [ 164.501743119999986, -4.66114394 ] ] ] } },
{ "type": "Feature", "properties": { "territory": "PNG", "admin": "Papua New Guinea", "country": null, "name": "Papua New Guinea", "pct_coast_retreat": 22.2032, "area_lost_km2": 243.4712, "area_gained_km2": 169.5023, "area_net_km2": -73.9688, "coast_km_assessed": 17416.26, "coast_km_retreat": 3866.97, "rate_median_m_yr": -0.005, "pop_total": 9715829, "pop_coastal_1km": 1106427, "pop_retreat_1km": 484293, "pct_coastal": 11.4, "pct_retreat": 5.0 }, "geometry": { "type": "Polygon", "coordinates": [ [ [ 164.501743119999986, -4.66114394 ], [ 164.501743119999986, -5.20074789 ], [ 158.11285822, -5.20074789 ], [ 155.557304249999987, -7.08536019 ], [ 155.153795730000013, -7.08536019 ], [ 154.54853295, -7.82372833 ], [ 155.49005283, -7.82372833 ], [ 155.49005283, -11.89102581 ], [ 144.52807137, -11.89102581 ], [ 144.52807137, -9.63023248 ], [ 144.25906569, -9.29637703 ], [ 143.78830574, -9.16274382 ], [ 143.250294380000014, -9.16274382 ], [ 141.03099752, -9.16274382 ], [ 141.03099752, -0.1768226 ], [ 146.091095880000012, -0.1768226 ], [ 164.501743119999986, -0.1768226 ], [ 164.501743119999986, -4.66114394 ] ] ] } },
{ "type": "Feature", "properties": { "territory": "SLB", "admin": "Solomon Islands", "country": null, "name": "Solomon Islands", "pct_coast_retreat": 12.7665, "area_lost_km2": 20.8276, "area_gained_km2": 28.5965, "area_net_km2": 7.7689, "coast_km_assessed": 6806.49, "coast_km_retreat": 868.95, "rate_median_m_yr": 0.047, "pop_total": 735473, "pop_coastal_1km": 333131, "pop_retreat_1km": 152672, "pct_coastal": 45.3, "pct_retreat": 20.8 }, "geometry": { "type": "Polygon", "coordinates": [ [ [ 155.49005283, -11.89102581 ], [ 155.49005283, -7.82372833 ], [ 154.54853295, -7.82372833 ], [ 155.153795730000013, -7.08536019 ], [ 155.557304249999987, -7.08536019 ], [ 158.11285822, -5.20074789 ], [ 164.501743119999986, -5.20074789 ], [ 164.501743119999986, -4.66114394 ], [ 168.69340993, -4.66114394 ], [ 170.72263948, -11.44961054 ], [ 171.10081162, -12.61950095 ], [ 156.959598989999989, -12.6209547 ], [ 156.959598989999989, -11.88368397 ], [ 155.49005283, -11.89102581 ] ] ] } },
{ "type": "Feature", "properties": { "territory": "VUT", "admin": "Vanuatu", "country": null, "name": "Vanuatu", "pct_coast_retreat": 13.2125, "area_lost_km2": 2.7369, "area_gained_km2": 4.1022, "area_net_km2": 1.3653, "coast_km_assessed": 721.59, "coast_km_retreat": 95.34, "rate_median_m_yr": -0.013, "pop_total": 295341, "pop_coastal_1km": 134227, "pop_retreat_1km": 25754, "pct_coastal": 45.4, "pct_retreat": 8.7 }, "geometry": { "type": "Polygon", "coordinates": [ [ [ 171.10081162, -12.61950095 ], [ 173.36984449, -15.15264971 ], [ 173.36984449, -21.39389523 ], [ 169.2099509, -21.39389523 ], [ 164.18566385, -17.70725147 ], [ 156.94636852, -17.70725147 ], [ 156.959598989999989, -12.6209547 ], [ 171.10081162, -12.61950095 ] ] ] } },
{ "type": "Feature", "properties": { "territory": "NCL", "admin": "New Caledonia", "country": "France", "name": "New Caledonia", "pct_coast_retreat": 12.1011, "area_lost_km2": 6.2451, "area_gained_km2": 11.1314, "area_net_km2": 4.8864, "coast_km_assessed": 2986.83, "coast_km_retreat": 361.44, "rate_median_m_yr": 0.01, "pop_total": 283701, "pop_coastal_1km": 88820, "pop_retreat_1km": 42620, "pct_coastal": 31.3, "pct_retreat": 15.0 }, "geometry": { "type": "Polygon", "coordinates": [ [ [ 156.94636852, -17.70725147 ], [ 164.18566385, -17.70725147 ], [ 169.2099509, -21.39389523 ], [ 173.36984449, -21.39389523 ], [ 173.36984449, -23.30345458 ], [ 156.94636852, -23.30345458 ], [ 156.94636852, -17.70725147 ] ] ] } },
{ "type": "Feature", "properties": { "territory": "TON", "admin": "Tonga", "country": null, "name": "Tonga", "pct_coast_retreat": 11.3097, "area_lost_km2": 0.6613, "area_gained_km2": 3.3963, "area_net_km2": 2.735, "coast_km_assessed": 179.58, "coast_km_retreat": 20.31, "rate_median_m_yr": 0.136, "pop_total": 105695, "pop_coastal_1km": 46564, "pop_retreat_1km": 7323, "pct_coastal": 44.1, "pct_retreat": 6.9 }, "geometry": { "type": "Polygon", "coordinates": [ [ [ -176.634314780000011, -15.37176006 ], [ -174.81676656, -15.37183791 ], [ -171.233108320000014, -15.37183791 ], [ -171.233108320000014, -17.421625 ], [ -171.233108320000014, -19.82565172 ], [ -171.233108320000014, -23.24005921 ], [ -178.898155120000013, -23.24005921 ], [ -178.898155120000013, -23.5769207 ], [ -179.495431489999987, -23.5769207 ], [ -179.510736939999987, -23.31385387 ], [ -176.634314780000011, -21.63660895 ], [ -176.634314780000011, -15.37176006 ] ] ] } },
{ "type": "Feature", "properties": { "territory": "NIU", "admin": "Niue", "country": "N.Z.", "name": "Niue", "pct_coast_retreat": 9.553, "area_lost_km2": 0.0827, "area_gained_km2": 0.2938, "area_net_km2": 0.2111, "coast_km_assessed": 34.23, "coast_km_retreat": 3.27, "rate_median_m_yr": 0.144, "pop_total": 1172, "pop_coastal_1km": 263, "pop_retreat_1km": 0, "pct_coastal": 22.4, "pct_retreat": 0.0 }, "geometry": { "type": "Polygon", "coordinates": [ [ [ -171.233108320000014, -17.421625 ], [ -166.5544434, -17.421625 ], [ -166.5544434, -19.82565172 ], [ -171.233108320000014, -19.82565172 ], [ -171.233108320000014, -17.421625 ] ] ] } },
{ "type": "Feature", "properties": { "territory": "WSM", "admin": "Samoa", "country": null, "name": "Samoa", "pct_coast_retreat": 12.4829, "area_lost_km2": 0.9884, "area_gained_km2": 2.4083, "area_net_km2": 1.4199, "coast_km_assessed": 285.03, "coast_km_retreat": 35.58, "rate_median_m_yr": 0.101, "pop_total": 210856, "pop_coastal_1km": 73666, "pop_retreat_1km": 25306, "pct_coastal": 34.9, "pct_retreat": 12.0 }, "geometry": { "type": "Polygon", "coordinates": [ [ [ -171.233108320000014, -15.37183791 ], [ -174.81676656, -15.37183791 ], [ -174.83039782, -11.4559087 ], [ -174.83039782, -9.99837515 ], [ -171.89674874, -9.99837515 ], [ -171.233108320000014, -11.27848134 ], [ -171.233108320000014, -15.37183791 ] ] ] } },
{ "type": "Feature", "properties": { "territory": "ASM", "admin": "American Samoa", "country": "U.S.", "name": "American Samoa", "pct_coast_retreat": 9.8056, "area_lost_km2": 0.4763, "area_gained_km2": 0.9494, "area_net_km2": 0.4731, "coast_km_assessed": 69.45, "coast_km_retreat": 6.81, "rate_median_m_yr": -0.004, "pop_total": 49855, "pop_coastal_1km": 21475, "pop_retreat_1km": 2613, "pct_coastal": 43.1, "pct_retreat": 5.2 }, "geometry": { "type": "Polygon", "coordinates": [ [ [ -171.233108320000014, -15.37183791 ], [ -171.233108320000014, -11.27848134 ], [ -171.89674874, -9.99837515 ], [ -166.5544434, -9.99837515 ], [ -166.5544434, -17.421625 ], [ -171.233108320000014, -17.421625 ], [ -171.233108320000014, -15.37183791 ] ] ] } },
{ "type": "Feature", "properties": { "territory": "TKL", "admin": "Tokelau", "country": "N.Z.", "name": "Tokelau", "pct_coast_retreat": 4.3113, "area_lost_km2": 0.122, "area_gained_km2": 0.623, "area_net_km2": 0.501, "coast_km_assessed": 53.58, "coast_km_retreat": 2.31, "rate_median_m_yr": 0.159, "pop_total": 2084, "pop_coastal_1km": 2084, "pop_retreat_1km": 774, "pct_coastal": 100.0, "pct_retreat": 37.2 }, "geometry": { "type": "Polygon", "coordinates": [ [ [ -166.5544434, -9.99837515 ], [ -171.89674874, -9.99837515 ], [ -174.83039782, -9.99837515 ], [ -174.83039782, -7.93338309 ], [ -166.5544434, -7.91995428 ], [ -166.5544434, -9.99837515 ] ] ] } },
{ "type": "Feature", "properties": { "territory": "COK", "admin": "Cook Islands", "country": "N.Z.", "name": "Cook Islands", "pct_coast_retreat": 21.5493, "area_lost_km2": 1.5054, "area_gained_km2": 1.0707, "area_net_km2": -0.4347, "coast_km_assessed": 280.38, "coast_km_retreat": 60.42, "rate_median_m_yr": -0.0825, "pop_total": 14987, "pop_coastal_1km": 8247, "pop_retreat_1km": 1689, "pct_coastal": 55.0, "pct_retreat": 11.3 }, "geometry": { "type": "Polygon", "coordinates": [ [ [ -166.5544434, -7.91995428 ], [ -156.01472751, -7.91643071 ], [ -156.01472751, -11.90258317 ], [ -156.01472751, -23.2459379 ], [ -171.233108320000014, -23.24005921 ], [ -171.233108320000014, -19.82565172 ], [ -166.5544434, -19.82565172 ], [ -166.5544434, -17.421625 ], [ -166.5544434, -7.91995428 ] ] ] } },
{ "type": "Feature", "properties": { "territory": "PYF", "admin": "French Polynesia", "country": "France", "name": "French Polynesia", "pct_coast_retreat": 27.5967, "area_lost_km2": 30.2723, "area_gained_km2": 13.8708, "area_net_km2": -16.4016, "coast_km_assessed": 4769.7, "coast_km_retreat": 1316.28, "rate_median_m_yr": -0.146, "pop_total": 278621, "pop_coastal_1km": 144633, "pop_retreat_1km": 58687, "pct_coastal": 51.9, "pct_retreat": 21.1 }, "geometry": { "type": "Polygon", "coordinates": [ [ [ -156.01472751, -23.2459379 ], [ -156.01472751, -11.90258317 ], [ -147.11674431, -11.89031548 ], [ -147.09126457, -5.63261317 ], [ -131.35333964, -5.6346473 ], [ -131.35333964, -22.83785272 ], [ -131.35333964, -26.57523533 ], [ -134.040794479999988, -29.98087755 ], [ -145.034927900000014, -29.98087755 ], [ -156.01472751, -23.2459379 ] ] ] } },
{ "type": "Feature", "properties": { "territory": "PCN", "admin": "Pitcairn", "country": "U.S.", "name": "Pitcairn Is.", "pct_coast_retreat": 6.0827, "area_lost_km2": 0.085, "area_gained_km2": 0.4039, "area_net_km2": 0.3189, "coast_km_assessed": 24.66, "coast_km_retreat": 1.5, "rate_median_m_yr": 0.451, "pop_total": 40, "pop_coastal_1km": 40, "pop_retreat_1km": 0, "pct_coastal": 100.0, "pct_retreat": 0.0 }, "geometry": { "type": "Polygon", "coordinates": [ [ [ -131.35333964, -22.83785272 ], [ -123.41313217, -22.83785272 ], [ -123.41313217, -26.57523533 ], [ -131.35333964, -26.57523533 ], [ -131.35333964, -22.83785272 ] ] ] } },
{ "type": "Feature", "properties": { "territory": "KIR", "admin": "Kiribati", "country": null, "name": "Kiribati", "pct_coast_retreat": 26.8275, "area_lost_km2": 6.6463, "area_gained_km2": 7.8939, "area_net_km2": 1.2476, "coast_km_assessed": 920.1, "coast_km_retreat": 246.84, "rate_median_m_yr": -0.157, "pop_total": 117068, "pop_coastal_1km": 114899, "pop_retreat_1km": 47004, "pct_coastal": 98.1, "pct_retreat": 40.2 }, "geometry": { "type": "MultiPolygon", "coordinates": [ [ [ [ 180.0, -5.90992874 ], [ 178.26505594, -4.65719222 ], [ 168.69340993, -4.66114394 ], [ 168.69340993, -0.1768226 ], [ 168.69340993, 3.37836892 ], [ 168.683918229999989, 3.9436977 ], [ 177.331096910000014, 3.9436977 ], [ 180.0, 1.74003336 ], [ 180.0, -5.90992874 ] ] ], [ [ [ -180.0, 1.74003336 ], [ -179.99475347, 1.73534939 ], [ -177.571117320000013, -0.22600569 ], [ -160.36867741, -0.23633826 ], [ -160.36867741, -0.65917387 ], [ -159.878655290000012, -0.65917387 ], [ -159.878655290000012, 3.60213853 ], [ -161.80374217, 5.21814408 ], [ -153.08834883, 5.21814408 ], [ -147.09126457, -5.63261317 ], [ -147.11674431, -11.89031548 ], [ -152.85026882, -11.89031548 ], [ -156.01472751, -11.90258317 ], [ -156.01472751, -7.91643071 ], [ -160.6969554, -7.91995428 ], [ -166.5544434, -7.91995428 ], [ -174.83039782, -7.93338309 ], [ -177.197670820000013, -7.93338309 ], [ -180.0, -5.90992874 ], [ -180.0, 1.74003336 ] ] ] ] } },
{ "type": "Feature", "properties": { "territory": "TUV", "admin": "Tuvalu", "country": null, "name": "Tuvalu", "pct_coast_retreat": 6.1588, "area_lost_km2": 0.4104, "area_gained_km2": 1.3934, "area_net_km2": 0.983, "coast_km_assessed": 131.52, "coast_km_retreat": 8.1, "rate_median_m_yr": 0.1985, "pop_total": 10455, "pop_coastal_1km": 10394, "pop_retreat_1km": 1687, "pct_coastal": 99.4, "pct_retreat": 16.1 }, "geometry": { "type": "MultiPolygon", "coordinates": [ [ [ [ 180.0, -11.45068203 ], [ 170.72263948, -11.44961054 ], [ 168.69340993, -4.66114394 ], [ 178.26505594, -4.65719222 ], [ 180.0, -5.90992874 ], [ 180.0, -11.45068203 ] ] ], [ [ [ -180.0, -5.90992874 ], [ -177.197670820000013, -7.93338309 ], [ -174.83039782, -7.93338309 ], [ -174.83039782, -11.4559087 ], [ -180.0, -11.45068203 ], [ -180.0, -5.90992874 ] ] ] ] } },
{ "type": "Feature", "properties": { "territory": "WLF", "admin": "Wallis and Futuna", "country": "France", "name": "Wallis & Futuna", "pct_coast_retreat": 2.8494, "area_lost_km2": 0.1505, "area_gained_km2": 0.3666, "area_net_km2": 0.2161, "coast_km_assessed": 22.11, "coast_km_retreat": 0.63, "rate_median_m_yr": 0.11, "pop_total": 8440, "pop_coastal_1km": 3235, "pop_retreat_1km": 8, "pct_coastal": 38.3, "pct_retreat": 0.1 }, "geometry": { "type": "MultiPolygon", "coordinates": [ [ [ [ 180.0, -15.36628294 ], [ 177.63778725, -15.36243881 ], [ 177.637787159999988, -11.45040921 ], [ 180.0, -11.45213402 ], [ 180.0, -15.36628294 ] ] ], [ [ [ -180.0, -11.45213402 ], [ -174.83039782, -11.4559087 ], [ -174.81676656, -15.37183791 ], [ -176.634314780000011, -15.37176006 ], [ -180.0, -15.36628294 ], [ -180.0, -11.45213402 ] ] ] ] } },
{ "type": "Feature", "properties": { "territory": "FJI", "admin": "Fiji", "country": null, "name": "Fiji", "pct_coast_retreat": 13.574, "area_lost_km2": 15.6339, "area_gained_km2": 19.1638, "area_net_km2": 3.5299, "coast_km_assessed": 3635.19, "coast_km_retreat": 493.44, "rate_median_m_yr": 0.006, "pop_total": 913601, "pop_coastal_1km": 168672, "pop_retreat_1km": 63868, "pct_coastal": 18.5, "pct_retreat": 7.0 }, "geometry": { "type": "MultiPolygon", "coordinates": [ [ [ [ 180.0, -23.31313921 ], [ 173.36984449, -23.30345458 ], [ 173.36984449, -15.20511685 ], [ 173.36984449, -15.15264971 ], [ 171.10081162, -12.61950095 ], [ 170.72263948, -11.44961054 ], [ 177.637787159999988, -11.45040921 ], [ 177.63778725, -15.36243881 ], [ 180.0, -15.36628294 ], [ 180.0, -23.31313921 ] ] ], [ [ [ -180.0, -15.36628294 ], [ -176.634314780000011, -15.37176006 ], [ -176.634314780000011, -21.63660895 ], [ -179.510736939999987, -23.31385387 ], [ -180.0, -23.31313921 ], [ -180.0, -15.36628294 ] ] ] ] } }
]
}
